{"type":"FeatureCollection","features":[{"type":"Feature","properties":{"OBJECTID_1":1,"OBJECTID":5,"LIBRARIES_":5,"DISTRICT":" ","ST_ADDRESS":"151 Cambridge St","BRANCH":"West End","ZIPCODE":"02114"},"geometry":{"type":"Point","coordinates":[-71.06500640954555,42.361446684455274]}},{"type":"Feature","properties":{"OBJECTID_1":2,"OBJECTID":11,"LIBRARIES_":11,"DISTRICT":" ","ST_ADDRESS":"690 Washington St","BRANCH":"Codman Square","ZIPCODE":"02124"},"geometry":{"type":"Point","coordinates":[-71.07096805318868,42.28751920362967]}},{"type":"Feature","properties":{"OBJECTID_1":3,"OBJECTID":17,"LIBRARIES_":17,"DISTRICT":"HYDE PARK","ST_ADDRESS":"35 Harvard Av","BRANCH":"Hyde Park","ZIPCODE":"02136"},"geometry":{"type":"Point","coordinates":[-71.12213580534608,42.257104012218086]}},{"type":"Feature","properties":{"OBJECTID_1":4,"OBJECTID":18,"LIBRARIES_":18,"DISTRICT":"JAMAICA PLAIN","ST_ADDRESS":"433 Centre St","BRANCH":"Connolly","ZIPCODE":"02130"},"geometry":{"type":"Point","coordinates":[-71.11109866637875,42.32064576883388]}},{"type":"Feature","properties":{"OBJECTID_1":5,"OBJECTID":22,"LIBRARIES_":22,"DISTRICT":"ROXBURY","ST_ADDRESS":"149 Dudley St","BRANCH":"Dudley","ZIPCODE":"02119"},"geometry":{"type":"Point","coordinates":[-71.0838502606658,42.32848990421156]}},{"type":"Feature","properties":{"OBJECTID_1":6,"OBJECTID":1,"LIBRARIES_":1,"DISTRICT":"COPLEY SQUARE","ST_ADDRESS":"700 Boylston St","BRANCH":"Central","ZIPCODE":"02116"},"geometry":{"type":"Point","coordinates":[-71.07886929403493,42.34943513660537]}},{"type":"Feature","properties":{"OBJECTID_1":7,"OBJECTID":3,"LIBRARIES_":3,"DISTRICT":" ","ST_ADDRESS":"25 Parmenter St","BRANCH":"North End","ZIPCODE":"02113"},"geometry":{"type":"Point","coordinates":[-71.05502490616833,42.36407986287045]}},{"type":"Feature","properties":{"OBJECTID_1":8,"OBJECTID":4,"LIBRARIES_":4,"DISTRICT":" ","ST_ADDRESS":"685 Tremont St","BRANCH":"South End","ZIPCODE":"02118"},"geometry":{"type":"Point","coordinates":[-71.07703200836687,42.34133213370064]}},{"type":"Feature","properties":{"OBJECTID_1":9,"OBJECTID":6,"LIBRARIES_":6,"DISTRICT":"BRIGHTON","ST_ADDRESS":"300 North Harvard St","BRANCH":"Honan-Allston","ZIPCODE":"02134"},"geometry":{"type":"Point","coordinates":[-71.12810700282893,42.36011296149519]}},{"type":"Feature","properties":{"OBJECTID_1":10,"OBJECTID":7,"LIBRARIES_":7,"DISTRICT":" ","ST_ADDRESS":"40 Academy Hill Rd","BRANCH":"Brighton","ZIPCODE":"02135"},"geometry":{"type":"Point","coordinates":[-71.15290656128764,42.3476854983543]}},{"type":"Feature","properties":{"OBJECTID_1":11,"OBJECTID":8,"LIBRARIES_":8,"DISTRICT":" ","ST_ADDRESS":"419 Faneuil St","BRANCH":"Faneuil","ZIPCODE":"02135"},"geometry":{"type":"Point","coordinates":[-71.16787811226892,42.35132265312124]}},{"type":"Feature","properties":{"OBJECTID_1":12,"OBJECTID":9,"LIBRARIES_":9,"DISTRICT":"CHARLESTOWN","ST_ADDRESS":"179 Main St","BRANCH":"Charlestown","ZIPCODE":"02129"},"geometry":{"type":"Point","coordinates":[-71.06443837599923,42.375816432973785]}},{"type":"Feature","properties":{"OBJECTID_1":13,"OBJECTID":10,"LIBRARIES_":10,"DISTRICT":"DORCHESTER","ST_ADDRESS":"690 Adams St","BRANCH":"Adams Street","ZIPCODE":"02122"},"geometry":{"type":"Point","coordinates":[-71.05440514783074,42.28627379951853]}},{"type":"Feature","properties":{"OBJECTID_1":14,"OBJECTID":12,"LIBRARIES_":12,"DISTRICT":" ","ST_ADDRESS":"1520 Dorchester Av","BRANCH":"Fields Corner","ZIPCODE":"02122"},"geometry":{"type":"Point","coordinates":[-71.06030650502971,42.29888545693412]}},{"type":"Feature","properties":{"OBJECTID_1":15,"OBJECTID":13,"LIBRARIES_":13,"DISTRICT":" ","ST_ADDRESS":"27 Richmond St","BRANCH":"Lower Mills","ZIPCODE":"02124"},"geometry":{"type":"Point","coordinates":[-71.06850891713442,42.273551459900666]}},{"type":"Feature","properties":{"OBJECTID_1":16,"OBJECTID":14,"LIBRARIES_":14,"DISTRICT":" ","ST_ADDRESS":"500 Columbia Rd","BRANCH":"Uphams Corner","ZIPCODE":"02125"},"geometry":{"type":"Point","coordinates":[-71.06753479597073,42.31485369804827]}},{"type":"Feature","properties":{"OBJECTID_1":17,"OBJECTID":15,"LIBRARIES_":15,"DISTRICT":"EAST BOSTON","ST_ADDRESS":"365 Bremen St","BRANCH":"East Boston","ZIPCODE":"02128"},"geometry":{"type":"Point","coordinates":[-71.02857724252186,42.37776633502656]}},{"type":"Feature","properties":{"OBJECTID_1":18,"OBJECTID":19,"LIBRARIES_":19,"DISTRICT":" ","ST_ADDRESS":"12 Sedgwick St","BRANCH":"Jamaica Plain","ZIPCODE":"02130"},"geometry":{"type":"Point","coordinates":[-71.11487849929733,42.30863374615522]}},{"type":"Feature","properties":{"OBJECTID_1":19,"OBJECTID":20,"LIBRARIES_":20,"DISTRICT":"MATTAPAN","ST_ADDRESS":"1350 Blue Hill Avenue","BRANCH":"Mattapan","ZIPCODE":"02126"},"geometry":{"type":"Point","coordinates":[-71.09313983273334,42.277523969736684]}},{"type":"Feature","properties":{"OBJECTID_1":20,"OBJECTID":21,"LIBRARIES_":21,"DISTRICT":"ROSLINDALE","ST_ADDRESS":"4246 Washington St","BRANCH":"Roslindale","ZIPCODE":"02131"},"geometry":{"type":"Point","coordinates":[-71.12865457022977,42.28564748274031]}},{"type":"Feature","properties":{"OBJECTID_1":21,"OBJECTID":23,"LIBRARIES_":23,"DISTRICT":" ","ST_ADDRESS":"2044 Columbus Av","BRANCH":"Egleston Square","ZIPCODE":"02119"},"geometry":{"type":"Point","coordinates":[-71.09563218710078,42.3140567812727]}},{"type":"Feature","properties":{"OBJECTID_1":22,"OBJECTID":24,"LIBRARIES_":24,"DISTRICT":" ","ST_ADDRESS":"41 Geneva Ave","BRANCH":"Grove Hall","ZIPCODE":"02121"},"geometry":{"type":"Point","coordinates":[-71.0811937657854,42.30798772697658]}},{"type":"Feature","properties":{"OBJECTID_1":23,"OBJECTID":25,"LIBRARIES_":25,"DISTRICT":" ","ST_ADDRESS":"1497 Tremont St","BRANCH":"Parker Hill","ZIPCODE":"02120"},"geometry":{"type":"Point","coordinates":[-71.09907946119068,42.33246136834754]}},{"type":"Feature","properties":{"OBJECTID_1":24,"OBJECTID":27,"LIBRARIES_":27,"DISTRICT":"WEST ROXBURY","ST_ADDRESS":"1961 Centre St","BRANCH":"West Roxbury","ZIPCODE":"02132"},"geometry":{"type":"Point","coordinates":[-71.15745011178733,42.28339574560806]}},{"type":"Feature","properties":{"OBJECTID_1":25,"OBJECTID":28,"LIBRARIES_":28,"DISTRICT":" SOUTH BOSTON","ST_ADDRESS":"646 East Broadway","BRANCH":"South Boston","ZIPCODE":"02127"},"geometry":{"type":"Point","coordinates":[-71.03871859185807,42.33583603709318]}},{"type":"Feature","properties":{"OBJECTID_1":27,"OBJECTID":null,"LIBRARIES_":null,"DISTRICT":"CHINATOWN","ST_ADDRESS":"2 Boylston St","BRANCH":"Chinatown","ZIPCODE":"02116"},"geometry":{"type":"Point","coordinates":[-71.06305666600669,42.35214293220734]}}]}